[{"OBJECT_NAME":"STARLINK-3618","OBJECT_ID":"2022-025AU","EPOCH":"2026-03-09T02:26:50.604576","MEAN_MOTION":15.0882983,"ECCENTRICITY":0.0001488,"INCLINATION":53.22,"RA_OF_ASC_NODE":21.7591,"ARG_OF_PERICENTER":91.3323,"MEAN_ANOMALY":268.784,"EPHEMERIS_TYPE":0,"CLASSIFICATION_TYPE":"U","NORAD_CAT_ID":51998,"ELEMENT_SET_NO":999,"REV_AT_EPOCH":22083,"BSTAR":-8.5334773e-5,"MEAN_MOTION_DOT":-1.645e-5,"MEAN_MOTION_DDOT":0},{"OBJECT_NAME":"OBJECT E","OBJECT_ID":"2024-205E","EPOCH":"2026-03-09T21:50:57.607872","MEAN_MOTION":15.117677,"ECCENTRICITY":0.00499914,"INCLINATION":97.419,"RA_OF_ASC_NODE":142.6836,"ARG_OF_PERICENTER":337.9131,"MEAN_ANOMALY":21.9945,"EPHEMERIS_TYPE":0,"CLASSIFICATION_TYPE":"U","NORAD_CAT_ID":61898,"ELEMENT_SET_NO":999,"REV_AT_EPOCH":7323,"BSTAR":0.00048588417,"MEAN_MOTION_DOT":8.479e-5,"MEAN_MOTION_DDOT":0}]
